STARLINK-32610          
1 61971U 24210N   26068.33849914  .00028884  00000+0  10546-2 0  9993
2 61971  42.9950 182.0282 0001186 291.3499  68.7225 15.27594292 74862
TEVEL2-5                
1 63214U 25052E   26068.96660006  .00021339  00000+0  71765-3 0  9991
2 63214  97.4013 325.3677 0004700  95.3936 264.7842 15.30817434 54919
